[
  {
    "name": "ONEWEB-0211",
    "noradId": "48767",
    "line1": "1 48767U 21045A   26180.50616558  .00000122  00000+0  28827-3 0  9991",
    "line2": "2 48767  87.9003 256.6252 0002321 116.4636 243.6733 13.16197282246060"
  },
  {
    "name": "ONEWEB-0223",
    "noradId": "48768",
    "line1": "1 48768U 21045B   26179.90609479  .00000110  00000+0  25866-3 0  9995",
    "line2": "2 48768  87.9008 256.8564 0001970 111.8451 248.2889 13.15549983245944"
  },
  {
    "name": "ONEWEB-0230",
    "noradId": "48769",
    "line1": "1 48769U 21045C   26179.95363147  .00000065  00000+0  13884-3 0  9996",
    "line2": "2 48769  87.8995 256.8597 0001945  95.3457 264.7896 13.15549026246219"
  },
  {
    "name": "ONEWEB-0237",
    "noradId": "48770",
    "line1": "1 48770U 21045D   26179.94253510 -.00000241  00000+0 -67365-3 0  9990",
    "line2": "2 48770  87.8998 256.8636 0002129 104.4206 255.7161 13.15547888245934"
  },
  {
    "name": "ONEWEB-0235",
    "noradId": "48771",
    "line1": "1 48771U 21045E   26180.29747471  .00000053  00000+0  10709-3 0  9994",
    "line2": "2 48771  87.9007 256.7796 0001908 111.4703 248.6631 13.15549234245971"
  },
  {
    "name": "ONEWEB-0242",
    "noradId": "48772",
    "line1": "1 48772U 21045F   26180.13902117  .00000184  00000+0  45585-3 0  9993",
    "line2": "2 48772  87.9010 256.8082 0001809 101.4323 258.7010 13.15547938245996"
  },
  {
    "name": "ONEWEB-0241",
    "noradId": "48773",
    "line1": "1 48773U 21045G   26179.74605687  .00000114  00000+0  26851-3 0  9999",
    "line2": "2 48773  87.8997 256.9034 0002124 111.5618 248.5739 13.15549159245855"
  },
  {
    "name": "ONEWEB-0243",
    "noradId": "48774",
    "line1": "1 48774U 21045H   26180.15802694  .00000010  00000+0 -77250-5 0  9991",
    "line2": "2 48774  87.8999 256.8338 0001503 105.4768 254.6529 13.15549808245937"
  },
  {
    "name": "ONEWEB-0222",
    "noradId": "48775",
    "line1": "1 48775U 21045J   26180.14138802  .00000095  00000+0  21915-3 0  9991",
    "line2": "2 48775  87.9008 256.8056 0002016 106.6379 253.4972 13.15549950245979"
  },
  {
    "name": "ONEWEB-0244",
    "noradId": "48776",
    "line1": "1 48776U 21045K   26179.93936833 -.00000124  00000+0 -36326-3 0  9994",
    "line2": "2 48776  87.9011 256.8412 0001925 102.9922 257.1424 13.15548798246514"
  },
  {
    "name": "ONEWEB-0247",
    "noradId": "48777",
    "line1": "1 48777U 21045L   26179.93620323 -.00000114  00000+0 -33814-3 0  9997",
    "line2": "2 48777  87.8999 256.8725 0001499 120.4536 239.6743 13.15547799245954"
  },
  {
    "name": "ONEWEB-0245",
    "noradId": "48778",
    "line1": "1 48778U 21045M   26180.15961644  .00000019  00000+0  16207-4 0  9998",
    "line2": "2 48778  87.9007 256.8081 0002107 104.6950 255.4414 13.15548784245958"
  },
  {
    "name": "ONEWEB-0229",
    "noradId": "48779",
    "line1": "1 48779U 21045N   26180.15485909 -.00000014  00000+0 -71713-4 0  9994",
    "line2": "2 48779  87.9008 256.8069 0001876 100.4109 259.7232 13.15549614245989"
  },
  {
    "name": "ONEWEB-0228",
    "noradId": "48780",
    "line1": "1 48780U 21045P   26179.96010826  .00000174  00000+0  42848-3 0  9996",
    "line2": "2 48780  87.9011 256.8391 0001966 102.4301 257.7050 13.15547196245876"
  },
  {
    "name": "ONEWEB-0232",
    "noradId": "48781",
    "line1": "1 48781U 21045Q   26179.93461368 -.00000128  00000+0 -37306-3 0  9999",
    "line2": "2 48781  87.9011 256.8448 0002106 101.1572 258.9795 13.15546756246199"
  }
]