{"fetchedAt":"2026-06-29T18:07:57.466Z","satellites":[{"id":"48767","name":"ONEWEB-0211","constellationId":"oneweb","omm":{"OBJECT_NAME":"ONEWEB-0211","OBJECT_ID":"2021-045A","EPOCH":"2026-06-29T12:08:52.706112","MEAN_MOTION":13.16197282,"ECCENTRICITY":0.0002321,"INCLINATION":87.9003,"RA_OF_ASC_NODE":256.6252,"ARG_OF_PERICENTER":116.4636,"MEAN_ANOMALY":243.6733,"EPHEMERIS_TYPE":0,"CLASSIFICATION_TYPE":"U","NORAD_CAT_ID":48767,"ELEMENT_SET_NO":999,"REV_AT_EPOCH":24606,"BSTAR":0.00028827,"MEAN_MOTION_DOT":0.00000122,"MEAN_MOTION_DDOT":0}},{"id":"48768","name":"ONEWEB-0223","constellationId":"oneweb","omm":{"OBJECT_NAME":"ONEWEB-0223","OBJECT_ID":"2021-045B","EPOCH":"2026-06-28T21:44:46.589856","MEAN_MOTION":13.15549983,"ECCENTRICITY":0.00019701,"INCLINATION":87.9008,"RA_OF_ASC_NODE":256.8564,"ARG_OF_PERICENTER":111.8451,"MEAN_ANOMALY":248.2889,"EPHEMERIS_TYPE":0,"CLASSIFICATION_TYPE":"U","NORAD_CAT_ID":48768,"ELEMENT_SET_NO":999,"REV_AT_EPOCH":24594,"BSTAR":0.00025866152,"MEAN_MOTION_DOT":0.0000011,"MEAN_MOTION_DDOT":0}},{"id":"48769","name":"ONEWEB-0230","constellationId":"oneweb","omm":{"OBJECT_NAME":"ONEWEB-0230","OBJECT_ID":"2021-045C","EPOCH":"2026-06-28T22:53:13.759008","MEAN_MOTION":13.15549026,"ECCENTRICITY":0.00019452,"INCLINATION":87.8995,"RA_OF_ASC_NODE":256.8597,"ARG_OF_PERICENTER":95.3457,"MEAN_ANOMALY":264.7896,"EPHEMERIS_TYPE":0,"CLASSIFICATION_TYPE":"U","NORAD_CAT_ID":48769,"ELEMENT_SET_NO":999,"REV_AT_EPOCH":24621,"BSTAR":0.00013883522,"MEAN_MOTION_DOT":6.5e-7,"MEAN_MOTION_DDOT":0}},{"id":"48770","name":"ONEWEB-0237","constellationId":"oneweb","omm":{"OBJECT_NAME":"ONEWEB-0237","OBJECT_ID":"2021-045D","EPOCH":"2026-06-28T22:37:15.032640","MEAN_MOTION":13.15547888,"ECCENTRICITY":0.00021299,"INCLINATION":87.8998,"RA_OF_ASC_NODE":256.8636,"ARG_OF_PERICENTER":104.4206,"MEAN_ANOMALY":255.7161,"EPHEMERIS_TYPE":0,"CLASSIFICATION_TYPE":"U","NORAD_CAT_ID":48770,"ELEMENT_SET_NO":999,"REV_AT_EPOCH":24593,"BSTAR":-0.00067365066,"MEAN_MOTION_DOT":-0.00000241,"MEAN_MOTION_DDOT":0}},{"id":"48771","name":"ONEWEB-0235","constellationId":"oneweb","omm":{"OBJECT_NAME":"ONEWEB-0235","OBJECT_ID":"2021-045E","EPOCH":"2026-06-29T07:08:21.814944","MEAN_MOTION":13.15549234,"ECCENTRICITY":0.0001908,"INCLINATION":87.9007,"RA_OF_ASC_NODE":256.7796,"ARG_OF_PERICENTER":111.4703,"MEAN_ANOMALY":248.6631,"EPHEMERIS_TYPE":0,"CLASSIFICATION_TYPE":"U","NORAD_CAT_ID":48771,"ELEMENT_SET_NO":999,"REV_AT_EPOCH":24597,"BSTAR":0.00010709,"MEAN_MOTION_DOT":5.3e-7,"MEAN_MOTION_DDOT":0}},{"id":"48772","name":"ONEWEB-0242","constellationId":"oneweb","omm":{"OBJECT_NAME":"ONEWEB-0242","OBJECT_ID":"2021-045F","EPOCH":"2026-06-29T03:20:11.429088","MEAN_MOTION":13.15547938,"ECCENTRICITY":0.0001809,"INCLINATION":87.901,"RA_OF_ASC_NODE":256.8082,"ARG_OF_PERICENTER":101.4323,"MEAN_ANOMALY":258.701,"EPHEMERIS_TYPE":0,"CLASSIFICATION_TYPE":"U","NORAD_CAT_ID":48772,"ELEMENT_SET_NO":999,"REV_AT_EPOCH":24599,"BSTAR":0.00045585,"MEAN_MOTION_DOT":0.00000184,"MEAN_MOTION_DDOT":0}},{"id":"48773","name":"ONEWEB-0241","constellationId":"oneweb","omm":{"OBJECT_NAME":"ONEWEB-0241","OBJECT_ID":"2021-045G","EPOCH":"2026-06-28T17:54:19.313568","MEAN_MOTION":13.15549159,"ECCENTRICITY":0.00021248,"INCLINATION":87.8997,"RA_OF_ASC_NODE":256.9034,"ARG_OF_PERICENTER":111.5618,"MEAN_ANOMALY":248.5739,"EPHEMERIS_TYPE":0,"CLASSIFICATION_TYPE":"U","NORAD_CAT_ID":48773,"ELEMENT_SET_NO":999,"REV_AT_EPOCH":24585,"BSTAR":0.00026850982,"MEAN_MOTION_DOT":0.00000114,"MEAN_MOTION_DDOT":0}},{"id":"48774","name":"ONEWEB-0243","constellationId":"oneweb","omm":{"OBJECT_NAME":"ONEWEB-0243","OBJECT_ID":"2021-045H","EPOCH":"2026-06-29T03:47:33.527616","MEAN_MOTION":13.15549808,"ECCENTRICITY":0.0001503,"INCLINATION":87.8999,"RA_OF_ASC_NODE":256.8338,"ARG_OF_PERICENTER":105.4768,"MEAN_ANOMALY":254.6529,"EPHEMERIS_TYPE":0,"CLASSIFICATION_TYPE":"U","NORAD_CAT_ID":48774,"ELEMENT_SET_NO":999,"REV_AT_EPOCH":24593,"BSTAR":-0.000007725,"MEAN_MOTION_DOT":1e-7,"MEAN_MOTION_DDOT":0}},{"id":"48775","name":"ONEWEB-0222","constellationId":"oneweb","omm":{"OBJECT_NAME":"ONEWEB-0222","OBJECT_ID":"2021-045J","EPOCH":"2026-06-29T03:23:35.924928","MEAN_MOTION":13.1554995,"ECCENTRICITY":0.0002016,"INCLINATION":87.9008,"RA_OF_ASC_NODE":256.8056,"ARG_OF_PERICENTER":106.6379,"MEAN_ANOMALY":253.4972,"EPHEMERIS_TYPE":0,"CLASSIFICATION_TYPE":"U","NORAD_CAT_ID":48775,"ELEMENT_SET_NO":999,"REV_AT_EPOCH":24597,"BSTAR":0.00021915,"MEAN_MOTION_DOT":9.5e-7,"MEAN_MOTION_DDOT":0}},{"id":"48776","name":"ONEWEB-0244","constellationId":"oneweb","omm":{"OBJECT_NAME":"ONEWEB-0244","OBJECT_ID":"2021-045K","EPOCH":"2026-06-28T22:32:41.423712","MEAN_MOTION":13.15548798,"ECCENTRICITY":0.00019258,"INCLINATION":87.9011,"RA_OF_ASC_NODE":256.8412,"ARG_OF_PERICENTER":102.9922,"MEAN_ANOMALY":257.1424,"EPHEMERIS_TYPE":0,"CLASSIFICATION_TYPE":"U","NORAD_CAT_ID":48776,"ELEMENT_SET_NO":999,"REV_AT_EPOCH":24651,"BSTAR":-0.0003632648,"MEAN_MOTION_DOT":-0.00000124,"MEAN_MOTION_DDOT":0}},{"id":"48777","name":"ONEWEB-0247","constellationId":"oneweb","omm":{"OBJECT_NAME":"ONEWEB-0247","OBJECT_ID":"2021-045L","EPOCH":"2026-06-28T22:28:07.959072","MEAN_MOTION":13.15547799,"ECCENTRICITY":0.00014994,"INCLINATION":87.8999,"RA_OF_ASC_NODE":256.8725,"ARG_OF_PERICENTER":120.4536,"MEAN_ANOMALY":239.6743,"EPHEMERIS_TYPE":0,"CLASSIFICATION_TYPE":"U","NORAD_CAT_ID":48777,"ELEMENT_SET_NO":999,"REV_AT_EPOCH":24595,"BSTAR":-0.00033814459,"MEAN_MOTION_DOT":-0.00000114,"MEAN_MOTION_DDOT":0}},{"id":"48778","name":"ONEWEB-0245","constellationId":"oneweb","omm":{"OBJECT_NAME":"ONEWEB-0245","OBJECT_ID":"2021-045M","EPOCH":"2026-06-29T03:49:50.860416","MEAN_MOTION":13.15548784,"ECCENTRICITY":0.0002107,"INCLINATION":87.9007,"RA_OF_ASC_NODE":256.8081,"ARG_OF_PERICENTER":104.695,"MEAN_ANOMALY":255.4414,"EPHEMERIS_TYPE":0,"CLASSIFICATION_TYPE":"U","NORAD_CAT_ID":48778,"ELEMENT_SET_NO":999,"REV_AT_EPOCH":24595,"BSTAR":0.000016207,"MEAN_MOTION_DOT":1.9e-7,"MEAN_MOTION_DDOT":0}},{"id":"48779","name":"ONEWEB-0229","constellationId":"oneweb","omm":{"OBJECT_NAME":"ONEWEB-0229","OBJECT_ID":"2021-045N","EPOCH":"2026-06-29T03:42:59.825376","MEAN_MOTION":13.15549614,"ECCENTRICITY":0.0001876,"INCLINATION":87.9008,"RA_OF_ASC_NODE":256.8069,"ARG_OF_PERICENTER":100.4109,"MEAN_ANOMALY":259.7232,"EPHEMERIS_TYPE":0,"CLASSIFICATION_TYPE":"U","NORAD_CAT_ID":48779,"ELEMENT_SET_NO":999,"REV_AT_EPOCH":24598,"BSTAR":-0.000071713,"MEAN_MOTION_DOT":-1.4e-7,"MEAN_MOTION_DDOT":0}},{"id":"48780","name":"ONEWEB-0228","constellationId":"oneweb","omm":{"OBJECT_NAME":"ONEWEB-0228","OBJECT_ID":"2021-045P","EPOCH":"2026-06-28T23:02:33.353664","MEAN_MOTION":13.15547196,"ECCENTRICITY":0.00019667,"INCLINATION":87.9011,"RA_OF_ASC_NODE":256.8391,"ARG_OF_PERICENTER":102.4301,"MEAN_ANOMALY":257.705,"EPHEMERIS_TYPE":0,"CLASSIFICATION_TYPE":"U","NORAD_CAT_ID":48780,"ELEMENT_SET_NO":999,"REV_AT_EPOCH":24587,"BSTAR":0.00042848125,"MEAN_MOTION_DOT":0.00000174,"MEAN_MOTION_DDOT":0}},{"id":"48781","name":"ONEWEB-0232","constellationId":"oneweb","omm":{"OBJECT_NAME":"ONEWEB-0232","OBJECT_ID":"2021-045Q","EPOCH":"2026-06-28T22:25:50.621952","MEAN_MOTION":13.15546756,"ECCENTRICITY":0.00021069,"INCLINATION":87.9011,"RA_OF_ASC_NODE":256.8448,"ARG_OF_PERICENTER":101.1572,"MEAN_ANOMALY":258.9795,"EPHEMERIS_TYPE":0,"CLASSIFICATION_TYPE":"U","NORAD_CAT_ID":48781,"ELEMENT_SET_NO":999,"REV_AT_EPOCH":24619,"BSTAR":-0.00037306225,"MEAN_MOTION_DOT":-0.00000128,"MEAN_MOTION_DDOT":0}}]}